{"fetched_at":"2026-07-16T06:42:28.334Z","source":"https://celestrak.org/NORAD/elements/gp.php?GROUP=globalstar&FORMAT=JSON","constellation":"globalstar","records":[{"OBJECT_NAME":"GLOBALSTAR M069","OBJECT_ID":"2007-020C","EPOCH":"2026-07-15T22:37:09.254208","CLASSIFICATION_TYPE":"U","MEAN_MOTION":12.23472242,"ECCENTRICITY":0.000164,"INCLINATION":52.001,"RA_OF_ASC_NODE":170.7368,"ARG_OF_PERICENTER":212.0895,"MEAN_ANOMALY":183.4853,"EPHEMERIS_TYPE":0,"NORAD_CAT_ID":31573,"ELEMENT_SET_NO":999,"REV_AT_EPOCH":88232,"BSTAR":-0.00021601392,"MEAN_MOTION_DOT":-0.00000116,"MEAN_MOTION_DDOT":0},{"OBJECT_NAME":"GLOBALSTAR M072","OBJECT_ID":"2007-020D","EPOCH":"2026-07-15T22:23:12.936768","CLASSIFICATION_TYPE":"U","MEAN_MOTION":11.9165884,"ECCENTRICITY":0.00016556,"INCLINATION":51.9949,"RA_OF_ASC_NODE":23.7168,"ARG_OF_PERICENTER":36.9818,"MEAN_ANOMALY":140.9534,"EPHEMERIS_TYPE":0,"NORAD_CAT_ID":31574,"ELEMENT_SET_NO":999,"REV_AT_EPOCH":87840,"BSTAR":0.00017644735,"MEAN_MOTION_DOT":-7.1e-7,"MEAN_MOTION_DDOT":0},{"OBJECT_NAME":"GLOBALSTAR M066","OBJECT_ID":"2007-048C","EPOCH":"2026-07-15T15:51:02.315808","CLASSIFICATION_TYPE":"U","MEAN_MOTION":12.30389489,"ECCENTRICITY":0.00055941,"INCLINATION":51.9609,"RA_OF_ASC_NODE":336.1749,"ARG_OF_PERICENTER":102.7371,"MEAN_ANOMALY":269.9817,"EPHEMERIS_TYPE":0,"NORAD_CAT_ID":32265,"ELEMENT_SET_NO":999,"REV_AT_EPOCH":86373,"BSTAR":0.00036375337,"MEAN_MOTION_DOT":-5.2e-7,"MEAN_MOTION_DDOT":0},{"OBJECT_NAME":"GLOBALSTAR M079","OBJECT_ID":"2010-054A","EPOCH":"2026-07-15T21:34:23.055744","CLASSIFICATION_TYPE":"U","MEAN_MOTION":12.62266431,"ECCENTRICITY":0.00011289,"INCLINATION":52.0055,"RA_OF_ASC_NODE":21.2674,"ARG_OF_PERICENTER":78.9268,"MEAN_ANOMALY":67.7048,"EPHEMERIS_TYPE":0,"NORAD_CAT_ID":37188,"ELEMENT_SET_NO":999,"REV_AT_EPOCH":72617,"BSTAR":-0.000002800343,"MEAN_MOTION_DOT":-0.00000104,"MEAN_MOTION_DDOT":0},{"OBJECT_NAME":"GLOBALSTAR M074","OBJECT_ID":"2010-054B","EPOCH":"2026-07-15T22:17:59.280576","CLASSIFICATION_TYPE":"U","MEAN_MOTION":12.62262033,"ECCENTRICITY":0.0000869,"INCLINATION":52.0032,"RA_OF_ASC_NODE":20.4362,"ARG_OF_PERICENTER":93.4873,"MEAN_ANOMALY":70.7747,"EPHEMERIS_TYPE":0,"NORAD_CAT_ID":37189,"ELEMENT_SET_NO":999,"REV_AT_EPOCH":72678,"BSTAR":0.000006805205,"MEAN_MOTION_DOT":-0.00000103,"MEAN_MOTION_DDOT":0},{"OBJECT_NAME":"GLOBALSTAR M076","OBJECT_ID":"2010-054C","EPOCH":"2026-07-15T18:19:53.021568","CLASSIFICATION_TYPE":"U","MEAN_MOTION":12.62262357,"ECCENTRICITY":0.00010953,"INCLINATION":52.0044,"RA_OF_ASC_NODE":21.1451,"ARG_OF_PERICENTER":93.6543,"MEAN_ANOMALY":278.7739,"EPHEMERIS_TYPE":0,"NORAD_CAT_ID":37190,"ELEMENT_SET_NO":999,"REV_AT_EPOCH":72648,"BSTAR":0.000046166245,"MEAN_MOTION_DOT":-9.6e-7,"MEAN_MOTION_DDOT":0},{"OBJECT_NAME":"GLOBALSTAR M077","OBJECT_ID":"2010-054D","EPOCH":"2026-07-15T21:24:11.212416","CLASSIFICATION_TYPE":"U","MEAN_MOTION":11.67547421,"ECCENTRICITY":0.00022576,"INCLINATION":51.9959,"RA_OF_ASC_NODE":106.4385,"ARG_OF_PERICENTER":226.4798,"MEAN_ANOMALY":210.2502,"EPHEMERIS_TYPE":0,"NORAD_CAT_ID":37191,"ELEMENT_SET_NO":999,"REV_AT_EPOCH":72449,"BSTAR":-0.00045728136,"MEAN_MOTION_DOT":-0.00000103,"MEAN_MOTION_DDOT":0},{"OBJECT_NAME":"GLOBALSTAR M075","OBJECT_ID":"2010-054E","EPOCH":"2026-07-15T22:56:15.427104","CLASSIFICATION_TYPE":"U","MEAN_MOTION":12.62267849,"ECCENTRICITY":0.00007632,"INCLINATION":51.9955,"RA_OF_ASC_NODE":62.5987,"ARG_OF_PERICENTER":65.9396,"MEAN_ANOMALY":39.5857,"EPHEMERIS_TYPE":0,"NORAD_CAT_ID":37192,"ELEMENT_SET_NO":999,"REV_AT_EPOCH":72557,"BSTAR":0.000081993416,"MEAN_MOTION_DOT":-8.9e-7,"MEAN_MOTION_DDOT":0},{"OBJECT_NAME":"GLOBALSTAR M073","OBJECT_ID":"2010-054F","EPOCH":"2026-07-15T19:27:18.408672","CLASSIFICATION_TYPE":"U","MEAN_MOTION":12.62266879,"ECCENTRICITY":0.00010625,"INCLINATION":52.0081,"RA_OF_ASC_NODE":337.1637,"ARG_OF_PERICENTER":96.8782,"MEAN_ANOMALY":67.2732,"EPHEMERIS_TYPE":0,"NORAD_CAT_ID":37193,"ELEMENT_SET_NO":999,"REV_AT_EPOCH":72754,"BSTAR":-0.000003019033,"MEAN_MOTION_DOT":-0.00000104,"MEAN_MOTION_DDOT":0},{"OBJECT_NAME":"GLOBALSTAR M083","OBJECT_ID":"2011-033A","EPOCH":"2026-07-15T13:44:50.954208","CLASSIFICATION_TYPE":"U","MEAN_MOTION":12.62264174,"ECCENTRICITY":0.000077,"INCLINATION":51.9866,"RA_OF_ASC_NODE":286.0787,"ARG_OF_PERICENTER":107.2171,"MEAN_ANOMALY":357.0003,"EPHEMERIS_TYPE":0,"NORAD_CAT_ID":37739,"ELEMENT_SET_NO":999,"REV_AT_EPOCH":69653,"BSTAR":0.00016682,"MEAN_MOTION_DOT":-7.4e-7,"MEAN_MOTION_DDOT":0},{"OBJECT_NAME":"GLOBALSTAR M088","OBJECT_ID":"2011-033B","EPOCH":"2026-07-15T22:06:53.305056","CLASSIFICATION_TYPE":"U","MEAN_MOTION":12.62269497,"ECCENTRICITY":0.00000446,"INCLINATION":52.0189,"RA_OF_ASC_NODE":191.5125,"ARG_OF_PERICENTER":96.007,"MEAN_ANOMALY":271.9575,"EPHEMERIS_TYPE":0,"NORAD_CAT_ID":37740,"ELEMENT_SET_NO":999,"REV_AT_EPOCH":69212,"BSTAR":-0.000059868245,"MEAN_MOTION_DOT":-0.00000114,"MEAN_MOTION_DDOT":0},{"OBJECT_NAME":"GLOBALSTAR M091","OBJECT_ID":"2011-033C","EPOCH":"2026-07-15T15:41:09.089088","CLASSIFICATION_TYPE":"U","MEAN_MOTION":12.62264251,"ECCENTRICITY":0.0000434,"INCLINATION":51.9981,"RA_OF_ASC_NODE":155.2505,"ARG_OF_PERICENTER":24.3021,"MEAN_ANOMALY":146.4094,"EPHEMERIS_TYPE":0,"NORAD_CAT_ID":37741,"ELEMENT_SET_NO":999,"REV_AT_EPOCH":69287,"BSTAR":-0.000098039,"MEAN_MOTION_DOT":-0.00000121,"MEAN_MOTION_DDOT":0},{"OBJECT_NAME":"GLOBALSTAR M085","OBJECT_ID":"2011-033D","EPOCH":"2026-07-15T22:29:38.037120","CLASSIFICATION_TYPE":"U","MEAN_MOTION":12.62264333,"ECCENTRICITY":0.000079,"INCLINATION":52.0124,"RA_OF_ASC_NODE":105.7043,"ARG_OF_PERICENTER":42.2244,"MEAN_ANOMALY":38.1585,"EPHEMERIS_TYPE":0,"NORAD_CAT_ID":37742,"ELEMENT_SET_NO":999,"REV_AT_EPOCH":69342,"BSTAR":0.000044021139,"MEAN_MOTION_DOT":-9.6e-7,"MEAN_MOTION_DDOT":0},{"OBJECT_NAME":"GLOBALSTAR M081","OBJECT_ID":"2011-033E","EPOCH":"2026-07-15T23:07:54.641568","CLASSIFICATION_TYPE":"U","MEAN_MOTION":12.62265271,"ECCENTRICITY":0.00006781,"INCLINATION":51.9954,"RA_OF_ASC_NODE":108.0266,"ARG_OF_PERICENTER":56.2486,"MEAN_ANOMALY":24.832,"EPHEMERIS_TYPE":0,"NORAD_CAT_ID":37743,"ELEMENT_SET_NO":999,"REV_AT_EPOCH":69357,"BSTAR":0.000002816872,"MEAN_MOTION_DOT":-0.00000103,"MEAN_MOTION_DDOT":0},{"OBJECT_NAME":"GLOBALSTAR M089","OBJECT_ID":"2011-033F","EPOCH":"2026-07-15T22:17:37.900896","CLASSIFICATION_TYPE":"U","MEAN_MOTION":12.62267597,"ECCENTRICITY":0.00007012,"INCLINATION":51.9937,"RA_OF_ASC_NODE":62.2863,"ARG_OF_PERICENTER":90.5312,"MEAN_ANOMALY":12.9171,"EPHEMERIS_TYPE":0,"NORAD_CAT_ID":37744,"ELEMENT_SET_NO":999,"REV_AT_EPOCH":69441,"BSTAR":0.000082497844,"MEAN_MOTION_DOT":-8.9e-7,"MEAN_MOTION_DDOT":0},{"OBJECT_NAME":"GLOBALSTAR M084","OBJECT_ID":"2011-080A","EPOCH":"2026-07-15T11:05:21.032736","CLASSIFICATION_TYPE":"U","MEAN_MOTION":12.62263504,"ECCENTRICITY":0.00008243,"INCLINATION":52.0021,"RA_OF_ASC_NODE":291.2057,"ARG_OF_PERICENTER":129.9842,"MEAN_ANOMALY":310.7473,"EPHEMERIS_TYPE":0,"NORAD_CAT_ID":38040,"ELEMENT_SET_NO":999,"REV_AT_EPOCH":67233,"BSTAR":0.00010404154,"MEAN_MOTION_DOT":-8.5e-7,"MEAN_MOTION_DDOT":0}]}
